[{"OBJECT_NAME":"HULIANWANG DIGUI-124","OBJECT_ID":"2025-295F","EPOCH":"2026-03-09T18:55:48.196992","MEAN_MOTION":13.43834022,"ECCENTRICITY":9.382e-5,"INCLINATION":50.0006,"RA_OF_ASC_NODE":22.392,"ARG_OF_PERICENTER":27.9448,"MEAN_ANOMALY":332.1481,"EPHEMERIS_TYPE":0,"CLASSIFICATION_TYPE":"U","NORAD_CAT_ID":67064,"ELEMENT_SET_NO":999,"REV_AT_EPOCH":1227,"BSTAR":0.00011694892,"MEAN_MOTION_DOT":-6.1e-7,"MEAN_MOTION_DDOT":0},{"OBJECT_NAME":"DELTA 1 DEB","OBJECT_ID":"1975-052MA","EPOCH":"2026-03-08T01:41:39.154848","MEAN_MOTION":13.35633361,"ECCENTRICITY":0.00594977,"INCLINATION":99.8002,"RA_OF_ASC_NODE":157.7159,"ARG_OF_PERICENTER":355.3166,"MEAN_ANOMALY":126.6631,"EPHEMERIS_TYPE":0,"CLASSIFICATION_TYPE":"U","NORAD_CAT_ID":42641,"ELEMENT_SET_NO":999,"REV_AT_EPOCH":59883,"BSTAR":0.00044678805,"MEAN_MOTION_DOT":1.87e-6,"MEAN_MOTION_DDOT":0}]
